QZS-1R                  
1 49336U 21096A   24063.48425788 -.00000235  00000+0  00000+0 0  9993
2 49336  35.7229  92.1340 0748536 269.3042 107.2606  1.00296126  8628
